MEAN_MOTION;ECCENTRICITY;INCLINATION;RA_OF_ASC_NODE;ARG_OF_PERICENTER;MEAN_ANOMALY;BSTAR;MEAN_MOTION_DOT;MEAN_MOTION_DDOT;TYPE
0.99585971;0.0007349;10.7847;34.9134;293.0893;63.2961;0;-2.3E-7;0;Intelsat
0.99585974;0.0007346;10.7853;34.9093;293.2579;253.461;0;-1.7E-7;0;Intelsat
0.99585989;0.0007333;10.7858;34.9057;293.2003;62.7691;0;-1.2E-7;0;Intelsat
0.9958601;0.000733;10.7864;34.9015;293.3783;254.1397;0;-6.0E-8;0;Intelsat
0.99586083;0.0007313;10.7875;34.8934;293.5353;272.7101;0;4.0E-8;0;Intelsat
0.99586183;0.0007302;10.7886;34.8857;293.6838;269.359;0;1.4E-7;0;Intelsat
0.99586309;0.00073;10.7896;34.8785;293.7858;249.2931;0;2.4E-7;0;Intelsat
0.99586488;0.0007294;10.7908;34.8702;293.9119;274.5593;0;3.4E-7;0;Intelsat
0.9958667;0.0007297;10.7918;34.8632;294.0186;248.271;0;4.3E-7;0;Intelsat
0.99586906;0.0007294;10.793;34.8552;294.1992;267.0307;0;5.2E-7;0;Intelsat
0.9958714;0.0007302;10.794;34.8482;294.3247;238.7897;0;5.9E-7;0;Intelsat
0.99587154;0.0007301;10.7941;34.8478;294.3457;259.1849;0;6.0E-7;0;Intelsat
0.99587438;0.0007301;10.7951;34.8403;294.5721;260.9713;0;6.7E-7;0;Intelsat
0.99587766;0.00073;10.7963;34.8324;294.8729;283.7947;0;7.3E-7;0;Intelsat
0.9958808;0.0007298;10.7973;34.8252;295.1195;266.7422;0;7.8E-7;0;Intelsat
0.99588407;0.0007288;10.7983;34.8182;295.5003;242.7716;0;8.1E-7;0;Intelsat
0.99588779;0.0007277;10.7995;34.8108;295.9049;242.508;0;8.4E-7;0;Intelsat
0.99588797;0.0007277;10.7995;34.8105;295.9198;258.2208;0;8.4E-7;0;Intelsat
0.99589179;0.0007262;10.8006;34.8032;296.3338;250.1137;0;8.5E-7;0;Intelsat
0.99589602;0.0007243;10.8019;34.7955;296.7613;262.1621;0;8.5E-7;0;Intelsat
0.99590011;0.0007218;10.803;34.7884;297.1674;249.5859;0;8.3E-7;0;Intelsat
0.99590462;0.0007189;10.8042;34.7808;297.6223;262.5361;0;8.0E-7;0;Intelsat
0.99590905;0.0007157;10.8053;34.7734;298.0872;262.0738;0;7.5E-7;0;Intelsat
0.99591338;0.0007123;10.8064;34.7663;298.4569;248.6953;0;6.9E-7;0;Intelsat
0.99591793;0.0007081;10.8075;34.7589;298.8937;251.2268;0;6.0E-7;0;Intelsat
0.99592675;0.0006993;10.8097;34.7442;299.5396;240.377;0;3.7E-7;0;Intelsat
0.99592731;0.000699;10.8098;34.7433;299.5508;284.7302;0;3.6E-7;0;Intelsat
0.99593168;0.0006945;10.8109;34.7357;299.8252;286.1762;0;2.1E-7;0;Intelsat
0.99593537;0.0006911;10.8119;34.7291;299.9734;240.2885;0;7.0E-8;0;Intelsat
0.99593946;0.0006872;10.813;34.7216;300.1074;240.3452;0;-1.1E-7;0;Intelsat
0.99594336;0.0006828;10.814;34.714;300.2984;240.3119;0;-3.0E-7;0;Intelsat
0.99594778;0.0006785;10.8153;34.7049;300.3986;311.0715;0;-5.4E-7;0;Intelsat
0.99595074;0.0006773;10.8162;34.6984;300.389;260.146;0;-7.1E-7;0;Intelsat
0.99595405;0.0006749;10.8174;34.6905;300.4062;274.0105;0;-9.3E-7;0;Intelsat
0.99595682;0.0006728;10.8184;34.6833;300.4685;259.5476;0;-1.12E-6;0;Intelsat
0.99595953;0.0006702;10.8196;34.6753;300.5475;280.8361;0;-1.34E-6;0;Intelsat
0.99596156;0.0006697;10.8205;34.6686;300.5463;243.3605;0;-1.52E-6;0;Intelsat
0.99596338;0.0006693;10.8216;34.6615;300.5516;223.0074;0;-1.7E-6;0;Intelsat
0.99596378;0.000669;10.8218;34.6598;300.5664;307.966;0;-1.75E-6;0;Intelsat
0.99596509;0.0006685;10.8228;34.6531;300.6534;269.7914;0;-1.91E-6;0;Intelsat
0.9959661;0.0006678;10.8238;34.6463;300.763;240.4604;0;-2.08E-6;0;Intelsat
0.99596615;0.0006675;10.8238;34.6458;300.7987;262.9761;0;-2.09E-6;0;Intelsat
0.99596685;0.0006671;10.8249;34.6383;300.9509;270.0985;0;-2.27E-6;0;Intelsat
0.99596708;0.0006664;10.8259;34.6313;301.1447;252.7795;0;-2.43E-6;0;Intelsat
0.99596708;0.0006664;10.8259;34.6313;301.1447;252.7795;0;-2.43E-6;0;Intelsat
0.99596692;0.000666;10.827;34.6242;301.3642;236.4834;0;-2.58E-6;0;Intelsat
0.99596686;0.0006658;10.8271;34.623;301.4397;298.5221;0;-2.61E-6;0;Intelsat
0.9959665;0.0006672;10.828;34.617;301.4772;233.9509;0;-2.72E-6;0;Intelsat
0.99596645;0.000667;10.8281;34.6164;301.5128;262.3651;0;-2.73E-6;0;Intelsat
0.99596538;0.0006649;10.8292;34.6093;301.8664;251.2204;0;-2.86E-6;0;Intelsat
0.99596383;0.0006638;10.8303;34.6017;302.2048;266.8708;0;-2.98E-6;0;Intelsat
0.99596206;0.0006619;10.8313;34.595;302.557;241.0763;0;-3.08E-6;0;Intelsat
0.99595981;0.0006581;10.8323;34.588;303.0183;226.8186;0;-3.17E-6;0;Intelsat
0.99595716;0.0006555;10.8334;34.5807;303.3835;227.2508;0;-3.24E-6;0;Intelsat
0.99595372;0.0006523;10.8346;34.5726;303.8026;271.2022;0;-3.31E-6;0;Intelsat
0.99595015;0.000646;10.8357;34.5653;304.2945;278.6134;0;-3.35E-6;0;Intelsat
0.99594653;0.0006422;10.8367;34.5584;304.5818;263.034;0;-3.38E-6;0;Intelsat
0.99592888;0.0006217;10.8407;34.5293;305.6106;239.5818;0;-3.38E-6;0;Intelsat
0.99591867;0.0006119;10.8428;34.5144;305.831;239.696;0;-3.3E-6;0;Intelsat
0.99589691;0.0005937;10.847;34.4838;305.9805;269.8944;0;-2.91E-6;0;Intelsat
0.9958922;0.0005953;10.8479;34.4771;305.8687;240.485;0;-2.78E-6;0;Intelsat
0.9958871;0.0005933;10.8489;34.4696;305.8218;240.6868;0;-2.62E-6;0;Intelsat
0.99588217;0.0005916;10.8499;34.4622;305.777;240.9022;0;-2.44E-6;0;Intelsat
0.99587744;0.0005901;10.8509;34.4549;305.7637;241.0555;0;-2.26E-6;0;Intelsat
0.99587201;0.0005892;10.8522;34.446;305.7815;321.7674;0;-2.0E-6;0;Intelsat
0.99587201;0.0005892;10.8522;34.446;305.7815;321.7674;0;-2.01E-6;0;Intelsat
0.99586877;0.0005885;10.853;34.4404;305.8563;241.2771;0;-1.84E-6;0;Intelsat
0.99586486;0.0005874;10.854;34.4332;305.9754;241.2933;0;-1.62E-6;0;Intelsat
0.99586128;0.0005864;10.855;34.4258;306.1469;245.6093;0;-1.4E-6;0;Intelsat
0.9958599;0.0005859;10.8554;34.4228;306.2745;35.5499;0;-1.3E-6;0;Intelsat
0.99585813;0.0005844;10.856;34.4187;306.3827;241.1881;0;-1.17E-6;0;Intelsat
0.99585537;0.0005824;10.857;34.4114;306.6475;241.0753;0;-9.5E-7;0;Intelsat
0.99585434;0.0005822;10.8575;34.4083;306.8133;35.2729;0;-8.5E-7;0;Intelsat
0.99585304;0.00058;10.8581;34.4042;306.9368;240.9224;0;-7.2E-7;0;Intelsat
0.99585117;0.0005775;10.8591;34.397;307.2585;240.7309;0;-5.0E-7;0;Intelsat
0.99585055;0.0005774;10.8595;34.3939;307.4499;34.9472;0;-4.0E-7;0;Intelsat
0.99584978;0.000575;10.8601;34.3898;307.5867;240.5577;0;-2.8E-7;0;Intelsat
0.99584888;0.0005716;10.8611;34.3826;307.913;240.3797;0;-7.0E-8;0;Intelsat
0.99584869;0.000571;10.8616;34.3795;308.101;34.5678;0;2.0E-8;0;Intelsat
0.99584848;0.0005681;10.8621;34.3754;308.2305;240.187;0;1.2E-7;0;Intelsat
0.99584857;0.0005641;10.8631;34.3682;308.529;240.0458;0;3.0E-7;0;Intelsat
0.99584879;0.0005629;10.8636;34.3651;308.7063;34.2509;0;3.8E-7;0;Intelsat
0.99584913;0.0005598;10.8642;34.3609;308.8183;239.8498;0;4.7E-7;0;Intelsat
0.99584957;0.0005588;10.8646;34.3579;308.9875;34.0568;0;5.3E-7;0;Intelsat
0.99585166;0.000551;10.8662;34.3464;309.2765;239.6555;0;7.4E-7;0;Intelsat
0.99585355;0.0005457;10.8671;34.3391;309.421;235.4646;0;8.4E-7;0;Intelsat
0.99585574;0.000541;10.8681;34.3322;309.4867;214.0507;0;9.1E-7;0;Intelsat
0.99585885;0.0005352;10.8692;34.3236;309.5162;264.9959;0;9.7E-7;0;Intelsat
0.99586174;0.0005312;10.8701;34.3167;309.4696;240.0353;0;1.0E-6;0;Intelsat
0.99586518;0.0005268;10.8711;34.3093;309.3727;240.2963;0;1.01E-6;0;Intelsat
0.99586684;0.0005241;10.8715;34.3059;309.19;42.6143;0;1.01E-6;0;Intelsat
0.99586892;0.000523;10.8721;34.3018;309.2222;240.5853;0;1.01E-6;0;Intelsat
0.99587293;0.0005192;10.8731;34.2942;309.0311;240.9137;0;9.9E-7;0;Intelsat
0.99587715;0.0005164;10.874;34.2868;308.8269;238.0917;0;9.5E-7;0;Intelsat
0.9958794;0.0005144;10.8745;34.2829;308.5897;61.5359;0;9.3E-7;0;Intelsat
0.99588625;0.0005123;10.876;34.2718;308.4369;241.9652;0;8.5E-7;0;Intelsat
0.99589099;0.0005107;10.877;34.2642;308.1974;242.384;0;7.7E-7;0;Intelsat
0.9958958;0.0005094;10.878;34.2568;308.0145;242.7185;0;6.9E-7;0;Intelsat
0.99589601;0.0005092;10.878;34.2565;308.0182;258.7966;0;6.9E-7;0;Intelsat
0.99590062;0.0005084;10.879;34.2494;307.8637;243.0316;0;6.0E-7;0;Intelsat
0.99590544;0.000508;10.88;34.242;307.7595;243.2798;0;5.0E-7;0;Intelsat
0.99590749;0.0005077;10.8804;34.2388;307.7859;37.6464;0;4.5E-7;0;Intelsat
0.9959102;0.0005075;10.8809;34.2346;307.7256;243.4884;0;3.9E-7;0;Intelsat
0.99591488;0.0005068;10.8819;34.2272;307.7437;243.6266;0;2.7E-7;0;Intelsat
0.99591717;0.0005062;10.8824;34.2234;307.8629;63.6046;0;2.1E-7;0;Intelsat
0.99591945;0.0005054;10.8829;34.2197;307.8044;245.7293;0;1.4E-7;0;Intelsat
0.99592398;0.0005045;10.8839;34.2121;307.9403;256.9879;0;0;0;Intelsat
0.99592596;0.0005038;10.8844;34.2087;308.1434;63.6372;0;-6.0E-8;0;Intelsat
0.99592804;0.0005027;10.8848;34.2048;308.1261;243.7605;0;-1.3E-7;0;Intelsat
0.99593204;0.0005007;10.8857;34.1974;308.3367;243.6993;0;-2.7E-7;0;Intelsat
0.99593398;0.0005003;10.8862;34.1937;308.5911;63.5582;0;-3.4E-7;0;Intelsat
0.99593581;0.0004985;10.8867;34.19;308.5446;243.6716;0;-4.1E-7;0;Intelsat
0.99593933;0.0004962;10.8877;34.1826;308.7732;243.6326;0;-5.6E-7;0;Intelsat
0.995941;0.0004953;10.8882;34.1789;309.0501;63.4194;0;-6.3E-7;0;Intelsat
0.99594381;0.0004923;10.8891;34.1722;309.2023;30.5211;0;-7.7E-7;0;Intelsat
0.99594685;0.0004879;10.8902;34.164;309.4298;63.3984;0;-9.4E-7;0;Intelsat
0.99594806;0.0004855;10.8907;34.1603;309.3615;243.5619;0;-1.02E-6;0;Intelsat
0.9959503;0.0004814;10.8917;34.1529;309.5184;243.5467;0;-1.18E-6;0;Intelsat
0.99595133;0.0004794;10.8922;34.1489;309.6426;63.5324;0;-1.26E-6;0;Intelsat
0.99595217;0.0004766;10.8927;34.1452;309.5629;243.6986;0;-1.34E-6;0;Intelsat
0.99595367;0.0004719;10.8937;34.1376;309.5974;243.8227;0;-1.5E-6;0;Intelsat
0.99595431;0.0004694;10.8942;34.1338;309.5701;63.9443;0;-1.59E-6;0;Intelsat
0.9959548;0.0004672;10.8947;34.13;309.5167;244.0838;0;-1.67E-6;0;Intelsat
0.99595554;0.0004631;10.8956;34.1223;309.3917;244.411;0;-1.83E-6;0;Intelsat
0.99595576;0.000461;10.8961;34.119;309.2644;38.9199;0;-1.9E-6;0;Intelsat
0.99595591;0.0004589;10.8966;34.1146;309.1807;244.7982;0;-2.0E-6;0;Intelsat
0.9959559;0.0004551;10.8976;34.1069;308.9287;245.224;0;-2.15E-6;0;Intelsat
0.99595553;0.0004515;10.8986;34.0992;308.5774;245.7434;0;-2.3E-6;0;Intelsat
0.99595553;0.0004515;10.8986;34.0992;308.5774;245.7434;0;-2.3E-6;0;Intelsat
0.99595487;0.0004493;10.8995;34.092;308.2337;220.5897;0;-2.43E-6;0;Intelsat
0.99595372;0.0004466;10.9005;34.0838;307.8502;246.8395;0;-2.56E-6;0;Intelsat
